{
    "CCSDS_OMM_VERS": "3.0",
    "COMMENT": "GENERATED VIA SPACE-TRACK.ORG API",
    "CREATION_DATE": "2025-05-23T14:46:20",
    "ORIGINATOR": "18 SPCS",
    "OBJECT_NAME": "BEIDOU 3M2",
    "OBJECT_ID": "2017-069B",
    "CENTER_NAME": "EARTH",
    "REF_FRAME": "TEME",
    "TIME_SYSTEM": "UTC",
    "MEAN_ELEMENT_THEORY": "SGP4",
    "EPOCH": "2025-05-23T05:48:09.906048",
    "MEAN_MOTION": "1.86230753",
    "ECCENTRICITY": "0.00096760",
    "INCLINATION": "56.3485",
    "RA_OF_ASC_NODE": "75.9997",
    "ARG_OF_PERICENTER": "337.6044",
    "MEAN_ANOMALY": "22.3309",
    "EPHEMERIS_TYPE": "0",
    "CLASSIFICATION_TYPE": "U",
    "NORAD_CAT_ID": "43002",
    "ELEMENT_SET_NO": "999",
    "REV_AT_EPOCH": "5133",
    "BSTAR": "0.00000000000000",
    "MEAN_MOTION_DOT": "-0.00000028",
    "MEAN_MOTION_DDOT": "0.0000000000000",
    "SEMIMAJOR_AXIS": "27906.213",
    "PERIOD": "773.234",
    "APOAPSIS": "21555.080",
    "PERIAPSIS": "21501.076",
    "OBJECT_TYPE": "PAYLOAD",
    "RCS_SIZE": "LARGE",
    "COUNTRY_CODE": "PRC",
    "LAUNCH_DATE": "2017-11-05",
    "SITE": "XSC",
    "DECAY_DATE": null,
    "FILE": "4736986",
    "GP_ID": "288176011",
    "TLE_LINE0": "0 BEIDOU 3M2",
    "TLE_LINE1": "1 43002U 17069B   25143.24178132 -.00000028  00000-0  00000+0 0  9995",
    "TLE_LINE2": "2 43002  56.3485  75.9997 0009676 337.6044  22.3309  1.86230753 51339"
}